STARLINK-32237          
1 60443U 24144U   26068.62841727  .00001518  00000+0  63376-4 0  9994
2 60443  53.1588 217.1357 0000868  58.8234 301.2851 15.30189107 89302
TOMORROW-S2             
1 60485U 24149T   26068.75188364  .00008133  00000+0  27683-3 0  9990
2 60485  97.3857 150.0385 0001648 234.3331 125.7757 15.30674935 86869
